0131P         2026 02 15.6137  2.407956  0.344768  179.2386  214.1369    7.3617  20250520  11.0  4.0  131P/Mueller                                             MPEC 2025-A40
0132P         2021 11 12.9691  1.696818  0.564060  216.5070  173.9799    5.3780  20250520  11.0  6.0  132P/Helin-Roman-Alu                                     MPEC 2024-BE0
0133P         2024 05 10.1012  2.670667  0.155675  131.8688  160.1011    1.3899  20250520  15.4  2.0  133P/Elst-Pizarro                                        MPC 94676
0134P         2030 01  8.6873  2.600418  0.585463   18.6629  201.9937    4.3332  20250520  11.5  4.0  134P/Kowal-Vavrova                                       MPC 89012
0135P         2022 04  6.2352  2.685676  0.293520   22.3799  213.0198    6.0631  20250520   7.0  8.0  135P/Shoemaker-Levy                                      MPEC 2024-C04
0136P         2025 01  3.4151  2.958440  0.293143  225.3106  137.4210    9.4274  20250520  11.0  4.0  136P/Mueller                                             MPC182888
0137P         2028 07 29.2941  1.931593  0.573001  141.2188  232.9268    4.8599  20250520  11.0  4.0  137P/Shoemaker-Levy                                      MPEC 2023-J29
0138P         2026 03 24.2970  1.694448  0.531555   95.6861  309.2719   10.0997  20250520  15.0  6.0  138P/Shoemaker-Levy                                      MPEC 2016-U66
0139P         2027 07 22.7574  3.392923  0.248316  165.9723  242.1803    2.3375  20250520   9.5  4.0  139P/Vaisala-Oterma                                      MPEC 2020-HN5
0140P         2031 10  5.4923  1.954448  0.695229  172.1586  343.3749    3.6991  20250520  11.5  6.0  140P/Bowell-Skiff                                        MPEC 2015-E14
0141P         2026 04 22.9697  0.807374  0.735899  153.6438  241.7762   13.9619  20250520  12.0 12.0  141P/Machholz                                            MPEC 2024-R10
0141P      a  2026 04 23.3342  0.807377  0.735918  241.9262  153.5054   13.9416  20250520  12.0 12.0  141P-A/Machholz                                          MPEC 2015-KD9
0141P      b  2026 04 15.3522  0.807678  0.735678  241.8152  153.5815   13.9856  20250520   9.0  4.0  141P-B/Machholz                                          MPC 24216
0141P      d  2026 05 18.5815  0.806727  0.736863  242.1747  153.2314   13.8334  20250520   9.0  4.0  141P-D/Machholz                                          MPC 37026
0141P      e  1994 09 19.2500  0.752528  0.750233  149.2667  246.1856   12.8152             9.0  4.0  141P-E/Machholz                                          MPEC 2015-R12
0141P      f  1994 09 19.1963  0.752528  0.750009  149.2374  246.1881   12.7898             9.0  4.0  141P-F/Machholz                                          MPEC 2015-R12
0141P      g  1994 09 19.1048  0.752528  0.749643  149.0784  246.3146   12.8259             9.0  4.0  141P-G/Machholz                                          MPEC 2015-R12
0141P      h  2015 08 24.3866  0.761562  0.746822  149.4500  246.0900   12.8431            18.5  4.0  141P-H/Machholz                                          MPC 95735
0141P      i  2026 04 13.6054  0.807211  0.735146  241.9360  153.4602   13.9416  20250520  17.5  4.0  141P-I/Machholz                                          MPEC 2022-SU8
0142P         2021 05 11.3630  2.521808  0.495985  174.0656  175.9592   12.2449  20250520   8.5  6.0  142P/Ge-Wang                                             MPEC 2024-C04
0143P         2026 12 25.5777  2.944574  0.383909  304.3159  242.5668    5.4618  20250520  13.5  2.0  143P/Kowal-Mrkos                                         MPC182888
0144P         2024 01 25.8179  1.399406  0.634966  216.3579  242.9246    3.9318  20250520   8.5  8.0  144P/Kushida                                             MPEC 2024-YC7
0145P         2026 01 31.9005  1.889837  0.542480   10.3775   26.7943   11.2765  20250520  13.5  4.0  145P/Shoemaker-Levy                                      MPC108598
0146P         2024 08  5.4204  1.418793  0.647577  317.0481   53.3611   23.1183  20250520  15.0  4.0  146P/Shoemaker-LINEAR                                    MPEC 2025-J72
0147P         2023 12  7.4784  3.160442  0.211811  348.6017   91.6673    2.3115  20250520  14.0  4.0  147P/Kushida-Muramatsu                                   MPEC 2024-UQ8
0148P         2022 06 14.2621  1.627685  0.550386    8.0793   89.1952    3.6589  20250520  16.0  2.0  148P/Anderson-LINEAR                                     MPEC 2024-JU4
0149P         2026 12 16.5505  2.789815  0.324438   30.2452  143.7633   34.2346  20250520   8.0  8.0  149P/Mueller                                             MPEC 2023-J29
0150P         2024 03 12.5220  1.745430  0.549206  246.1239  272.0556   18.5484  20250520  13.5  4.0  150P/LONEOS                                              MPEC 2024-NE4
0151P         2029 08 17.8834  2.464640  0.572579  216.1559  143.1245    4.7254  20250520  10.0  6.0  151P/Helin                                               MPEC 2022-K19
0152P         2022 01 13.4585  3.109006  0.306916  164.4447   91.7755    9.8798  20250520  11.5  4.0  152P/Helin-Lawrence                                      MPC182888
0153P         2002 03 12.0314  0.497037  0.990153   34.2255   93.7993   28.4962  20250520   9.0  4.0  153P/Ikeya-Zhang                                         MPC 46101
0154P         2024 06 13.2194  1.552513  0.676287   47.9335  342.9961   17.6378  20250520   2.5 12.0  154P/Brewington                                          MPEC 2025-GB9
0155P         2019 11 17.3258  1.789777  0.727659   14.5302   97.1568    6.4106  20250520  10.0  4.8  155P/Shoemaker                                           MPEC 2022-YN2
0156P         2027 04 30.4735  1.333536  0.614880    0.5253   35.3349   17.2613  20250520  15.5  2.0  156P/Russell-LINEAR                                      MPEC 2023-J29
0157P         2022 09 10.1510  1.572447  0.556803  155.1758  287.4987   12.4242  20250520  10.0  4.0  157P/Tritton                                             MPEC 2024-D33
0157P      b  2022 09  8.3950  1.551687  0.499897  287.2063  153.8824   12.4252  20250520  15.7  4.0  157P-B/Tritton                                           MPEC 2022-VC5
0158P         2022 09  1.0025  5.012244  0.117547  228.8180  124.4909    7.4426  20250520   9.0  4.0  158P/Kowal-LINEAR                                        MPC182888
0159P         2018 05 26.1761  3.615127  0.382565    4.7240   54.9390   23.4840  20250520  10.0  4.0  159P/LONEOS                                              MPEC 2024-DC6
0160P         2027 04  7.2091  1.795252  0.525021   12.7809  333.3500   15.5952  20250520  15.5  2.0  160P/LINEAR                                              MPEC 2022-K19
0161P         2026 11 27.9733  1.266738  0.835817   47.0678    1.5156   95.8180  20250520   8.5  6.0  161P/Hartley-IRAS                                        MPC 75721
0162P         2026 05 17.8187  1.289479  0.582945  357.2364   30.8772   27.5538  20250520  12.0  4.0  162P/SidingSpring                                        MPEC 2025-A40
0163P         2026 11 23.9120  2.055550  0.453477  349.6320  102.0725   12.7212  20250520  14.5  4.0  163P/NEAT                                                MPEC 2021-S45
0164P         2025 05 27.4041  1.675101  0.541283  325.9531   88.2690   16.2774  20250520  11.0  4.0  164P/Christensen                                         MPEC 2024-TD8
0165P         2000 06 13.3779  6.783819  0.619197  125.8732    0.6811   15.9081  20250520  11.5  2.0  165P/LINEAR                                              MPC 75721
0166P         2002 06  6.8462  8.540784  0.382938  321.8490   64.4379   15.3780  20250520   5.5  4.0  166P/NEAT                                                MPC 75722
0167P         2001 03 27.8249 11.898891  0.267853  344.4606  295.8352   19.0755  20250520   9.5  2.0  167P/CINEOS                                              MPEC 2023-J29
0168P         2026 05 26.2422  1.358388  0.621279   15.0996  355.3897   21.5951  20250520  15.5  4.0  168P/Hergenrother                                        MPEC 2023-J29
0169P         2026 09 21.3220  0.603898  0.768055  218.1204  176.0597   11.2871  20250520  16.0  2.0  169P/NEAT                                                MPEC 2025-J72
0170P         2023 04 15.7603  2.914268  0.305252  224.7536  142.6385   10.1289  20250520  12.0  4.0  170P/Christensen                                         MPEC 2025-GB9
0171P         2025 09 25.0491  1.766296  0.502751  347.0909  101.7002   21.9507  20250520  13.5  4.0  171P/Spahr                                               MPC102102
0172P         2025 11  2.5418  3.358137  0.204883  208.8981   30.8826   11.2232  20250520  13.0  4.0  172P/Yeung                                               MPEC 2025-J72
0173P         2021 12 17.8022  4.215966  0.262360   29.2864  100.3462   16.4934  20250520   7.5  4.0  173P/Mueller                                             MPEC 2023-N01
0174P         2015 04 20.2185  5.864822  0.454886  163.4328  173.3374    4.3410  20250520   9.4  2.0  174P/Echeclus                                            MPC 92985
0175P         2026 09  3.0055  2.302429  0.376144   74.7040  109.8209    4.9268  20250520  14.0  4.0  175P/Hergenrother                                        MPC114608
0176P         2022 11 19.8460  2.582279  0.191848   34.4707  345.6329    0.2312  20250520  15.1  2.0  176P/LINEAR                                              MPC 89015
0177P         2006 08 30.3911  1.121332  0.954251   60.7559  271.8639   31.0071  20250520  15.0  4.0  177P/Barnard                                             MPEC 2020-L06
0178P         2027 06 21.3781  1.880726  0.482296  297.9612  102.7849   11.0924  20250520  13.5  4.0  178P/Hug-Bell                                            MPEC 2024-R10
0179P         2022 05 31.8556  4.123590  0.305444  297.2110  115.5086   19.8901  20250520   2.5  8.0  179P/Jedicke                                             MPEC 2024-EF7
